TRANSPORTER-11 OBJECT A 
1 60468U 24149A   26068.74646182  .00010774  00000+0  36054-3 0  9993
2 60468  97.3780 149.0949 0003110 191.0010 169.1164 15.31141332 86830
STARLINK-34910          
1 66269U 25247E   26068.61995141  .00033808  00000+0  11487-2 0  9991
2 66269  53.1585 191.6779 0001103  93.2829 266.8298 15.30190409 21024
