[{"OBJECT_NAME":"TRANSPORTER-11 OBJECT A","OBJECT_ID":"2024-149A","EPOCH":"2026-03-09T17:54:54.302112","MEAN_MOTION":15.31141332,"ECCENTRICITY":0.00031096,"INCLINATION":97.378,"RA_OF_ASC_NODE":149.0949,"ARG_OF_PERICENTER":191.001,"MEAN_ANOMALY":169.1164,"EPHEMERIS_TYPE":0,"CLASSIFICATION_TYPE":"U","NORAD_CAT_ID":60468,"ELEMENT_SET_NO":999,"REV_AT_EPOCH":8683,"BSTAR":0.00036053677,"MEAN_MOTION_DOT":0.00010774,"MEAN_MOTION_DDOT":0},{"OBJECT_NAME":"STARLINK-34910","OBJECT_ID":"2025-247E","EPOCH":"2026-03-09T14:52:43.801824","MEAN_MOTION":15.30190409,"ECCENTRICITY":0.0001103,"INCLINATION":53.1585,"RA_OF_ASC_NODE":191.6779,"ARG_OF_PERICENTER":93.2829,"MEAN_ANOMALY":266.8298,"EPHEMERIS_TYPE":0,"CLASSIFICATION_TYPE":"U","NORAD_CAT_ID":66269,"ELEMENT_SET_NO":999,"REV_AT_EPOCH":2102,"BSTAR":0.0011487,"MEAN_MOTION_DOT":0.00033808,"MEAN_MOTION_DDOT":0}]
